ID,full_name,sigma_e,sigma_a,sigma_i,sigma_om,sigma_w,sigma_ma,sigma_ad,sigma_n,sigma_tp,sigma_per,a,e,i,om,w,ad,q,per_y,n_obs_used,ma,condition_code,H,epoch_mjd,data_arc
12461,       (2014 HR195),1.2771,5.7467,5.7042,8.2662,167.31,9.5138,8.7279,0.5901,175.02,5367.4,2.906129186642564,0.5187873436285321,7.755029879660508,225.9090496917682,23.80737174952073,4.413792227622206,1.398466145662922,4.95428032653132,19,349.4706958188627,9.0,23.843,56771,1.0
18285,       (2017 VF2),0.00011686,0.00069294,0.0020741,0.00021454,0.016267,0.29212,0.00093391,0.00013907,1.1178,0.56603,2.222822272357157,0.3477463420430921,4.922718546695291,25.90203082128863,14.73843095149294,2.995800586581272,1.449843958133042,3.31409773428829,24,273.768155129289,6.0,21.445,60200,29.0
11483,       (2013 GA74),1.3134e-06,1.1583e-08,4.1188e-05,3.5271e-05,0.0014699,0.0017207,1.2472e-08,5.4178e-09,0.0034838,7.9888e-06,1.584606084198681,0.07671033211075379,17.81596618806636,16.45701277797846,55.76123547752263,1.706161743182283,1.463050425215079,1.99475784115565,66,210.2932903329469,1.0,19.59,60200,8101.0
14098,       (2015 ER5),0.00076367,0.0038389,0.0087926,0.012494,0.037319,2.336,0.0054006,0.00077882,9.2067,3.129,2.213212607200083,0.4068230403888642,5.19225371331823,11.01277863368527,192.2474016306387,3.113598489088186,1.31282672531198,3.29262980728491,21,198.5785892349658,7.0,22.088,60200,14.0
18891,       (2018 PP7),0.00010205,0.00047528,0.0012663,0.00098655,0.00298,0.19052,0.00065471,0.00010324,0.76744,0.38214,2.153590842020113,0.3775018572028495,5.805951272932099,1.192400931075603,339.6620407367583,2.966575384537754,1.340606299502472,3.16047963242281,22,212.5364891387675,6.0,21.4,60200,62.0
3682,415974 (2001 YV1),6.072e-08,5.6799e-09,7.6378e-06,1.0521e-05,2.6396e-05,1.8397e-05,6.8364e-09,1.724e-09,4.8291e-05,4.2712e-06,1.883816862900487,0.203600513669483,23.48103096403165,84.77235594306352,104.4577415739327,2.267362943846261,1.500270781954714,2.58562907373329,302,69.0017738102076,0.0,17.59,60200,7873.0
12456,       (2014 HQ193),2.7939e-07,3.2601e-07,2.9061e-05,1.5918e-05,0.00018166,3.1395e-05,4.1469e-07,8.9157e-08,9.0453e-05,0.00025032,1.964037130548183,0.2720088992310679,38.07942865939414,218.657114828367,141.9968376014596,2.498272708477539,1.429801552618826,2.75253432330988,51,24.79321491012838,1.0,19.2,60200,2420.0
15325,       (2015 XS377),1.3921e-07,2.7614e-08,9.4316e-06,2.4273e-05,9.8355e-05,0.00010695,3.0861e-08,8.7024e-09,0.00027389,2.061e-05,1.855732854471149,0.1175891986662804,19.91883693084691,255.1175478636776,343.5474917470679,2.0739469937671,1.637518715175197,2.5280251332005,50,232.012819910966,0.0,18.85,60200,2475.0
4360,469457 (2002 QE44),5.3043e-08,6.848e-09,3.745e-06,6.4489e-05,6.5676e-05,1.0888e-05,8.7564e-09,1.2723e-09,3.8252e-05,5.6808e-06,2.292487169326036,0.2786759397937689,5.149283379601336,101.262537930673,244.6164634276338,2.931348185703126,1.653626152948946,3.47111156676303,236,12.99348599483126,0.0,18.31,60200,7766.0
9932,       (2011 BK45),0.0021072,0.012331,0.71271,0.12325,1.0236,1.2655,0.014247,0.0038772,5.5617,9.2079,1.85744731765065,0.1553632492715623,25.99786948744751,142.3939155407568,233.1574211747483,2.146026368271603,1.568868267029697,2.5315293069562,10,102.8118912099951,9.0,20.603,55594,4.0
7983,       (2006 SW217),4.532e-05,0.00022754,0.00023881,0.00025449,0.0013156,0.15355,0.00034915,2.4287e-05,0.85775,0.21088,2.861475348575406,0.5344372389587193,3.974832927303407,48.21679265780139,345.5884531833675,4.390754333216485,1.332196363934327,4.84053333754718,156,183.0256313224031,5.0,20.3,60200,85.0
3350,390695 (2003 AY3),3.879e-08,9.4619e-09,7.1877e-06,9.8567e-06,1.4518e-05,1.2832e-05,1.2475e-08,1.6712e-09,4.8116e-05,7.929e-06,2.339357863855712,0.3184654076162793,22.58520834970969,207.099500052131,281.8719085035353,3.08436241952887,1.594353308182554,3.57810595744732,509,262.1043609147974,0.0,16.68,60200,7686.0
9472,       (2010 JB38),1.738e-06,2.3118e-07,1.2885e-05,0.00011384,0.00031861,0.00013072,2.921e-07,4.9525e-08,0.00042444,0.00018639,2.165545306732811,0.2635515621403972,8.308743784141383,68.08644895941154,216.0753554735258,2.73627815520805,1.594812458257573,3.18683159143713,45,37.65147045951908,1.0,19.5,60200,4916.0
5043,511509 (2014 OA338),4.4384e-08,7.8919e-09,7.7193e-06,1.5126e-05,3.2655e-05,2.6254e-05,8.9388e-09,2.3997e-09,6.8912e-05,5.9324e-06,1.882473233364993,0.1326618370849818,17.27349678748598,321.485143034155,79.37107287153593,2.132205590766498,1.632740875963487,2.58286327300156,117,102.3359177805979,0.0,18.84,60200,5395.0
10150,       (2011 PE11),3.3929e-08,1.2476e-08,3.8511e-06,3.7792e-05,3.9564e-05,1.1221e-05,1.6164e-08,2.3756e-09,3.9555e-05,1.0299e-05,2.270087069877063,0.2955675424613141,9.24314118189565,137.353726742145,160.8895652816048,2.941051126293831,1.599123013460294,3.42036122796861,268,207.5665337958147,0.0,17.56,60200,8104.0
17825,       (2017 RG),4.2214e-07,1.5032e-07,1.2961e-05,3.0549e-05,4.1096e-05,4.2202e-05,2.0264e-07,2.3883e-08,0.00021801,0.00012866,2.440561100160396,0.3480675348929956,14.15274906526821,249.7743954619734,121.0155727833885,3.290041186048962,1.59108101427183,3.81278862634313,171,199.2133841761514,1.0,18.3,60200,3126.0
2857,351223 (2004 PG7),4.7733e-08,9.7451e-09,6.5253e-06,4.3584e-05,4.5294e-05,1.6383e-05,1.241e-08,1.8454e-09,5.9469e-05,8.0533e-06,2.275090602905167,0.2734682539583511,7.722166387428952,320.1670102833538,335.6480451876948,2.897255657678695,1.652925548131639,3.43167576126368,230,217.477263302249,0.0,17.45,60200,6834.0
17429,       (2017 KK2),3.4055e-07,1.8249e-08,1.2982e-05,1.9418e-05,8.8399e-05,0.00011805,2.026e-08,6.0029e-09,0.00029496,1.3504e-05,1.824187402206899,0.1102051254739504,23.86734879461519,70.03240137163631,349.8985847156541,2.02522220375511,1.623152600658688,2.46383931291661,39,10.70883043675133,0.0,19.65,60200,4288.0
13913,       (2015 BH68),1.0848e-07,6.2505e-08,1.012e-05,1.2474e-05,2.9329e-05,1.4546e-05,9.3706e-08,5.2061e-09,6.5544e-05,6.0876e-05,3.15995570252666,0.4991643761654512,22.31319809502254,158.733669543203,77.03715390043445,4.737293019488839,1.58261838556448,5.61732684493984,281,163.5884528107865,0.0,16.8,60200,6143.0
10639,       (2012 DR54),3.3739e-07,9.6169e-08,1.2233e-05,3.9661e-05,9.1081e-05,3.765e-05,1.3722e-07,1.3771e-08,0.00015781,8.4042e-05,2.544162442533413,0.4268878202331385,9.525259437246742,0.2566501130834614,173.835687955507,3.630234401945519,1.458090483121307,4.05812535340733,66,298.1109990181107,0.0,20.3,60200,2889.0
14070,       (2015 DJ200),6.2378e-08,1.4746e-08,2.0123e-05,1.7789e-05,0.00013539,0.00011439,1.7324e-08,4.6829e-09,0.00029353,1.0989e-05,1.850045908696603,0.1748060564964247,19.26116787592729,329.2747875974496,272.1581145961597,2.173445138333201,1.526646679060005,2.51641323413365,66,69.81672076040255,0.0,19.35,60200,4935.0
2578,329282 (1999 WZ5),7.3677e-08,7.3109e-09,6.4039e-06,1.3988e-05,1.4773e-05,6.2886e-06,9.8036e-09,1.3333e-09,2.2908e-05,6.0874e-06,2.309621367267602,0.3409509431031844,27.54993045943517,103.3515141743203,295.8787356528025,3.097088950648756,1.522153783886447,3.5100991595054,533,290.1068602405944,0.0,16.26,60200,8214.0
12420,       (2014 HP73),0.38021,1.1052,20.931,4.5397,20.624,27.385,1.4344,0.26001,54.012,874.5,2.085876866393291,0.2979436535997229,20.13353929966717,205.0609599853601,276.9864072187875,2.707350640925649,1.464403091860933,3.01259813976756,14,56.53111421063834,9.0,20.84,56770,2.0
9976,       (2011 ES109),7.0683e-07,1.7085e-08,2.7651e-05,9.0023e-05,0.00018128,0.00020989,1.8927e-08,5.5027e-09,0.00053145,1.2696e-05,1.839659879434606,0.107789653180506,22.79976180235148,112.6668182689373,86.87553101676367,2.037956179808953,1.641363579060258,2.49525254872265,29,354.4211227613688,0.0,19.4,60200,3722.0
19684,       (2019 HG),7.7197e-08,2.9532e-08,7.0024e-06,8.2939e-05,8.9208e-05,2.8384e-05,3.6703e-08,6.2324e-09,9.3598e-05,2.3881e-05,2.178560869782127,0.2428527053386684,7.504497452957055,83.09721686776945,226.5067661703959,2.707630270753679,1.649491468810575,3.21560540843185,104,37.45435096014565,0.0,18.34,60200,7553.0
2768,344112 (1999 VD4),3.6941e-08,1.1468e-08,4.3427e-06,6.7281e-05,6.8271e-05,1.2768e-05,1.5777e-08,1.505e-09,5.8868e-05,1.0198e-05,2.63446058975631,0.3757703796172882,5.95918560132573,54.00428866178072,355.4013333764775,3.624412845655824,1.644508333856797,4.27607940670205,268,202.3276968745872,0.0,16.94,60200,8223.0
9747,       (2010 TE54),0.00027763,0.0014926,0.0010301,0.0012459,0.0045048,0.99749,0.002231,0.00020575,4.0939,1.3143,2.583186753096324,0.4946860507818485,2.393075586363625,6.433266601640552,45.06238049623903,3.86105320641753,1.305320299775118,4.15185243669899,26,29.57111460814384,7.0,22.2,60200,38.0
5652,571327 (2007 HS14),7.3204e-08,1.7599e-08,3.6078e-06,0.00014762,0.00015174,3.1772e-05,2.1678e-08,3.9719e-09,0.00010027,1.4042e-05,2.120852731915758,0.2317969989529508,3.668115655337909,131.8988732536447,184.8057713175987,2.612460030394998,1.629245433436518,3.08868750861183,154,35.60667469878129,0.0,18.42,60200,7597.0
16184,       (2016 NF139),1.6512e-05,0.00010495,0.00027574,0.0011513,0.0034759,0.036774,0.00014329,1.4468e-05,0.18516,0.092414,2.583135492276604,0.3653369904634733,6.384968025658339,89.70664061022714,257.7074726162397,3.526850438984322,1.639420545568887,4.15172885312349,15,242.0933601666196,5.0,19.1,60200,50.0
10894,       (2012 QO14),0.4227,0.24156,5.9886,3.5439,203.85,259.01,0.26313,0.080294,762.98,178.38,1.816582828186509,0.08927888893770305,17.8718993349927,337.9196630686761,93.63396235422816,1.978765324750311,1.654400331622707,2.44844870012759,6,261.337535558726,9.0,19.319,56160,2.0
15333,       (2015 XM378),2.8833e-06,2.3303e-05,0.00031556,0.00011329,0.0046076,0.022314,2.8349e-05,6.8652e-06,0.059286,0.017629,1.906437867677778,0.216546252669149,23.62002629851472,103.4746326050859,296.5262644277053,2.319269843869964,1.493605891485593,2.63234122941084,32,6.301547686862992,4.0,19.1,60200,559.0
